{"fetched_at":"2026-07-08T17:59:25.198Z","source":"https://celestrak.org/NORAD/elements/gp.php?GROUP=oneweb&FORMAT=JSON","constellation":"oneweb","records":[{"OBJECT_NAME":"ONEWEB-0320","OBJECT_ID":"2021-083E","EPOCH":"2026-07-08T07:57:40.716000","CLASSIFICATION_TYPE":"U","MEAN_MOTION":13.1868756,"ECCENTRICITY":0.0001911,"INCLINATION":87.9181,"RA_OF_ASC_NODE":331.2549,"ARG_OF_PERICENTER":98.5669,"MEAN_ANOMALY":261.568,"EPHEMERIS_TYPE":0,"NORAD_CAT_ID":49190,"ELEMENT_SET_NO":999,"REV_AT_EPOCH":23276,"BSTAR":0.00011183,"MEAN_MOTION_DOT":5.7e-7,"MEAN_MOTION_DDOT":0},{"OBJECT_NAME":"ONEWEB-0321","OBJECT_ID":"2021-083F","EPOCH":"2026-07-08T04:27:20.853792","CLASSIFICATION_TYPE":"U","MEAN_MOTION":13.20773847,"ECCENTRICITY":0.0002199,"INCLINATION":87.9191,"RA_OF_ASC_NODE":270.2506,"ARG_OF_PERICENTER":106.626,"MEAN_ANOMALY":253.5115,"EPHEMERIS_TYPE":0,"NORAD_CAT_ID":49191,"ELEMENT_SET_NO":999,"REV_AT_EPOCH":23960,"BSTAR":0.00021131,"MEAN_MOTION_DOT":9.9e-7,"MEAN_MOTION_DDOT":0},{"OBJECT_NAME":"ONEWEB-0322","OBJECT_ID":"2021-083G","EPOCH":"2026-07-08T07:59:12.058944","CLASSIFICATION_TYPE":"U","MEAN_MOTION":13.13470967,"ECCENTRICITY":0.0001893,"INCLINATION":87.8972,"RA_OF_ASC_NODE":316.0255,"ARG_OF_PERICENTER":113.467,"MEAN_ANOMALY":246.6658,"EPHEMERIS_TYPE":0,"NORAD_CAT_ID":49192,"ELEMENT_SET_NO":999,"REV_AT_EPOCH":23369,"BSTAR":0.00081788,"MEAN_MOTION_DOT":0.00000311,"MEAN_MOTION_DDOT":0},{"OBJECT_NAME":"ONEWEB-0324","OBJECT_ID":"2021-083H","EPOCH":"2026-07-08T09:08:06.610848","CLASSIFICATION_TYPE":"U","MEAN_MOTION":13.18686739,"ECCENTRICITY":0.0002098,"INCLINATION":87.9192,"RA_OF_ASC_NODE":331.2349,"ARG_OF_PERICENTER":96.7587,"MEAN_ANOMALY":263.3784,"EPHEMERIS_TYPE":0,"NORAD_CAT_ID":49193,"ELEMENT_SET_NO":999,"REV_AT_EPOCH":23279,"BSTAR":0.000071821,"MEAN_MOTION_DOT":4.1e-7,"MEAN_MOTION_DDOT":0},{"OBJECT_NAME":"ONEWEB-0325","OBJECT_ID":"2021-083J","EPOCH":"2026-07-07T22:17:23.146368","CLASSIFICATION_TYPE":"U","MEAN_MOTION":13.18686866,"ECCENTRICITY":0.0001806,"INCLINATION":87.9181,"RA_OF_ASC_NODE":331.3312,"ARG_OF_PERICENTER":98.367,"MEAN_ANOMALY":261.7667,"EPHEMERIS_TYPE":0,"NORAD_CAT_ID":49194,"ELEMENT_SET_NO":999,"REV_AT_EPOCH":23274,"BSTAR":-0.000072654,"MEAN_MOTION_DOT":-1.6e-7,"MEAN_MOTION_DDOT":0},{"OBJECT_NAME":"ONEWEB-0326","OBJECT_ID":"2021-083K","EPOCH":"2026-07-08T07:45:46.035072","CLASSIFICATION_TYPE":"U","MEAN_MOTION":13.18686586,"ECCENTRICITY":0.0001737,"INCLINATION":87.9191,"RA_OF_ASC_NODE":331.2522,"ARG_OF_PERICENTER":89.0266,"MEAN_ANOMALY":271.1065,"EPHEMERIS_TYPE":0,"NORAD_CAT_ID":49195,"ELEMENT_SET_NO":999,"REV_AT_EPOCH":23278,"BSTAR":0.000094454,"MEAN_MOTION_DOT":5e-7,"MEAN_MOTION_DDOT":0},{"OBJECT_NAME":"ONEWEB-0327","OBJECT_ID":"2021-083L","EPOCH":"2026-07-08T07:45:21.797280","CLASSIFICATION_TYPE":"U","MEAN_MOTION":13.18686391,"ECCENTRICITY":0.0001547,"INCLINATION":87.918,"RA_OF_ASC_NODE":331.2547,"ARG_OF_PERICENTER":88.0902,"MEAN_ANOMALY":272.0407,"EPHEMERIS_TYPE":0,"NORAD_CAT_ID":49196,"ELEMENT_SET_NO":999,"REV_AT_EPOCH":23280,"BSTAR":0.000071293,"MEAN_MOTION_DOT":4.1e-7,"MEAN_MOTION_DDOT":0},{"OBJECT_NAME":"ONEWEB-0328","OBJECT_ID":"2021-083M","EPOCH":"2026-07-08T07:44:34.046592","CLASSIFICATION_TYPE":"U","MEAN_MOTION":13.13470395,"ECCENTRICITY":0.0002074,"INCLINATION":87.8985,"RA_OF_ASC_NODE":316.0029,"ARG_OF_PERICENTER":97.7485,"MEAN_ANOMALY":262.3879,"EPHEMERIS_TYPE":0,"NORAD_CAT_ID":49197,"ELEMENT_SET_NO":999,"REV_AT_EPOCH":23367,"BSTAR":0.000041908,"MEAN_MOTION_DOT":2.8e-7,"MEAN_MOTION_DDOT":0},{"OBJECT_NAME":"ONEWEB-0331","OBJECT_ID":"2021-083N","EPOCH":"2026-07-08T09:25:05.120832","CLASSIFICATION_TYPE":"U","MEAN_MOTION":13.18684739,"ECCENTRICITY":0.0001818,"INCLINATION":87.9195,"RA_OF_ASC_NODE":331.2325,"ARG_OF_PERICENTER":83.699,"MEAN_ANOMALY":276.435,"EPHEMERIS_TYPE":0,"NORAD_CAT_ID":49198,"ELEMENT_SET_NO":999,"REV_AT_EPOCH":23280,"BSTAR":0.00014254,"MEAN_MOTION_DOT":6.9e-7,"MEAN_MOTION_DDOT":0},{"OBJECT_NAME":"ONEWEB-0333","OBJECT_ID":"2021-083P","EPOCH":"2026-07-08T11:16:38.547840","CLASSIFICATION_TYPE":"U","MEAN_MOTION":13.13470017,"ECCENTRICITY":0.0001859,"INCLINATION":87.8973,"RA_OF_ASC_NODE":315.9986,"ARG_OF_PERICENTER":99.8748,"MEAN_ANOMALY":260.2591,"EPHEMERIS_TYPE":0,"NORAD_CAT_ID":49199,"ELEMENT_SET_NO":999,"REV_AT_EPOCH":23370,"BSTAR":-0.00046105,"MEAN_MOTION_DOT":-0.00000156,"MEAN_MOTION_DDOT":0},{"OBJECT_NAME":"ONEWEB-0334","OBJECT_ID":"2021-083Q","EPOCH":"2026-07-08T12:04:18.023232","CLASSIFICATION_TYPE":"U","MEAN_MOTION":13.20771065,"ECCENTRICITY":0.0002167,"INCLINATION":87.9189,"RA_OF_ASC_NODE":270.197,"ARG_OF_PERICENTER":120.2718,"MEAN_ANOMALY":239.863,"EPHEMERIS_TYPE":0,"NORAD_CAT_ID":49200,"ELEMENT_SET_NO":999,"REV_AT_EPOCH":23960,"BSTAR":-0.00096524,"MEAN_MOTION_DOT":-0.00000379,"MEAN_MOTION_DDOT":0},{"OBJECT_NAME":"ONEWEB-0335","OBJECT_ID":"2021-083R","EPOCH":"2026-07-08T07:29:54.542112","CLASSIFICATION_TYPE":"U","MEAN_MOTION":13.13471254,"ECCENTRICITY":0.0001904,"INCLINATION":87.8974,"RA_OF_ASC_NODE":316.0274,"ARG_OF_PERICENTER":94.1362,"MEAN_ANOMALY":265.9985,"EPHEMERIS_TYPE":0,"NORAD_CAT_ID":49201,"ELEMENT_SET_NO":999,"REV_AT_EPOCH":23369,"BSTAR":-0.00085704,"MEAN_MOTION_DOT":-0.000003,"MEAN_MOTION_DDOT":0},{"OBJECT_NAME":"ONEWEB-0336","OBJECT_ID":"2021-083S","EPOCH":"2026-07-08T06:48:29.153664","CLASSIFICATION_TYPE":"U","MEAN_MOTION":13.13471636,"ECCENTRICITY":0.0001896,"INCLINATION":87.8975,"RA_OF_ASC_NODE":316.0276,"ARG_OF_PERICENTER":87.3095,"MEAN_ANOMALY":272.8251,"EPHEMERIS_TYPE":0,"NORAD_CAT_ID":49202,"ELEMENT_SET_NO":999,"REV_AT_EPOCH":23368,"BSTAR":-0.0018683,"MEAN_MOTION_DOT":-0.00000669,"MEAN_MOTION_DDOT":0},{"OBJECT_NAME":"ONEWEB-0337","OBJECT_ID":"2021-083T","EPOCH":"2026-07-07T21:54:26.886816","CLASSIFICATION_TYPE":"U","MEAN_MOTION":13.1346871,"ECCENTRICITY":0.0002076,"INCLINATION":87.897,"RA_OF_ASC_NODE":316.1074,"ARG_OF_PERICENTER":95.4655,"MEAN_ANOMALY":264.6711,"EPHEMERIS_TYPE":0,"NORAD_CAT_ID":49203,"ELEMENT_SET_NO":999,"REV_AT_EPOCH":23363,"BSTAR":-0.00070402,"MEAN_MOTION_DOT":-0.00000244,"MEAN_MOTION_DDOT":0},{"OBJECT_NAME":"ONEWEB-0338","OBJECT_ID":"2021-083U","EPOCH":"2026-07-08T11:31:35.123232","CLASSIFICATION_TYPE":"U","MEAN_MOTION":13.20770668,"ECCENTRICITY":0.0002001,"INCLINATION":87.9184,"RA_OF_ASC_NODE":270.2041,"ARG_OF_PERICENTER":108.092,"MEAN_ANOMALY":252.0431,"EPHEMERIS_TYPE":0,"NORAD_CAT_ID":49204,"ELEMENT_SET_NO":999,"REV_AT_EPOCH":23962,"BSTAR":0.000047352,"MEAN_MOTION_DOT":3.2e-7,"MEAN_MOTION_DDOT":0},{"OBJECT_NAME":"ONEWEB-0339","OBJECT_ID":"2021-083V","EPOCH":"2026-07-08T07:15:18.153216","CLASSIFICATION_TYPE":"U","MEAN_MOTION":13.13469063,"ECCENTRICITY":0.0002032,"INCLINATION":87.8973,"RA_OF_ASC_NODE":316.0231,"ARG_OF_PERICENTER":107.0392,"MEAN_ANOMALY":253.096,"EPHEMERIS_TYPE":0,"NORAD_CAT_ID":49205,"ELEMENT_SET_NO":999,"REV_AT_EPOCH":23366,"BSTAR":-0.00075926,"MEAN_MOTION_DOT":-0.00000265,"MEAN_MOTION_DDOT":0}]}
