ONEWEB-0320             
1 49190U 21083E   26189.33172125  .00000057  00000+0  11183-3 0  9995
2 49190  87.9181 331.2549 0001911  98.5669 261.5680 13.18687560232764
ONEWEB-0321             
1 49191U 21083F   26189.18565803  .00000099  00000+0  21131-3 0  9998
2 49191  87.9191 270.2506 0002199 106.6260 253.5115 13.20773847239609
ONEWEB-0322             
1 49192U 21083G   26189.33277846  .00000311  00000+0  81788-3 0  9994
2 49192  87.8972 316.0255 0001893 113.4670 246.6658 13.13470967233694
ONEWEB-0324             
1 49193U 21083H   26189.38063207  .00000041  00000+0  71821-4 0  9992
2 49193  87.9192 331.2349 0002098  96.7587 263.3784 13.18686739232798
ONEWEB-0325             
1 49194U 21083J   26188.92874012 -.00000016  00000+0 -72654-4 0  9995
2 49194  87.9181 331.3312 0001806  98.3670 261.7667 13.18686866232743
ONEWEB-0326             
1 49195U 21083K   26189.32344948  .00000050  00000+0  94454-4 0  9999
2 49195  87.9191 331.2522 0001737  89.0266 271.1065 13.18686586232788
ONEWEB-0327             
1 49196U 21083L   26189.32316895  .00000041  00000+0  71293-4 0  9996
2 49196  87.9180 331.2547 0001547  88.0902 272.0407 13.18686391232806
ONEWEB-0328             
1 49197U 21083M   26189.32261628  .00000028  00000+0  41908-4 0  9995
2 49197  87.8985 316.0029 0002074  97.7485 262.3879 13.13470395233675
ONEWEB-0331             
1 49198U 21083N   26189.39242038  .00000069  00000+0  14254-3 0  9995
2 49198  87.9195 331.2325 0001818  83.6990 276.4350 13.18684739232806
ONEWEB-0333             
1 49199U 21083P   26189.46989060 -.00000156  00000+0 -46105-3 0  9996
2 49199  87.8973 315.9986 0001859  99.8748 260.2591 13.13470017233702
ONEWEB-0334             
1 49200U 21083Q   26189.50298638 -.00000379  00000+0 -96524-3 0  9995
2 49200  87.9189 270.1970 0002167 120.2718 239.8630 13.20771065239605
ONEWEB-0335             
1 49201U 21083R   26189.31243683 -.00000300  00000+0 -85704-3 0  9997
2 49201  87.8974 316.0274 0001904  94.1362 265.9985 13.13471254233691
ONEWEB-0336             
1 49202U 21083S   26189.28367076 -.00000669  00000+0 -18683-2 0  9996
2 49202  87.8975 316.0276 0001896  87.3095 272.8251 13.13471636233688
ONEWEB-0337             
1 49203U 21083T   26188.91281119 -.00000244  00000+0 -70402-3 0  9996
2 49203  87.8970 316.1074 0002076  95.4655 264.6711 13.13468710233638
ONEWEB-0338             
1 49204U 21083U   26189.48026763  .00000032  00000+0  47352-4 0  9994
2 49204  87.9184 270.2041 0002001 108.0920 252.0431 13.20770668239626
ONEWEB-0339             
1 49205U 21083V   26189.30229344 -.00000265  00000+0 -75926-3 0  9993
2 49205  87.8973 316.0231 0002032 107.0392 253.0960 13.13469063233660
